{"type": "FeatureCollection", "features": [ {"type": "Feature", "properties": {"norad_id": 43262, "name": "GAOFEN-1 04", "group": "resource", "lat": 57.86996311316702, "lon": -128.69192009486568, "alt_km": 634.606749144592, "timestamp": "2025-12-06T09:34:16.575563+00:00", "meta": {"OBJECT_NAME": "GAOFEN-1 04", "OBJECT_ID": "2018-031D", "EPOCH": "2025-12-05T23:15:55.533600", "MEAN_MOTION": 14.76428138, "ECCENTRICITY": 0.00012576, "INCLINATION": 98.0817, "RA_OF_ASC_NODE": 37.8022, "ARG_OF_PERICENTER": 62.3188, "MEAN_ANOMALY": 297.8148, "EPHEMERIS_TYPE": 0, "CLASSIFICATION_TYPE": "U", "NORAD_CAT_ID": 43262, "ELEMENT_SET_NO": 999, "REV_AT_EPOCH": 41417, "BSTAR": 0.00029037518, "MEAN_MOTION_DOT": 1.967e-05, "MEAN_MOTION_DDOT": 0}, "tle": {"line1": "1 43262U 18031D   25339.96939275  .00001967  00000+0  29038-3 0  9999", "line2": "2 43262  98.0817  37.8022 0001257  62.3188 297.8148 14.76428138414177"}}, "geometry": {"type": "Point", "coordinates": [-128.69192009486568, 57.86996311316702]}}, {"type": "Feature", "properties": {"norad_id": 43437, "name": "SENTINEL-3B", "group": "resource", "lat": -19.442431274221153, "lon": 48.74660731967987, "alt_km": 808.3819495196658, "timestamp": "2025-12-06T09:34:16.575573+00:00", "meta": {"OBJECT_NAME": "SENTINEL-3B", "OBJECT_ID": "2018-039A", "EPOCH": "2025-12-05T21:52:53.329440", "MEAN_MOTION": 14.26738795, "ECCENTRICITY": 0.0001492, "INCLINATION": 98.6274, "RA_OF_ASC_NODE": 45.1945, "ARG_OF_PERICENTER": 109.4025, "MEAN_ANOMALY": 250.7317, "EPHEMERIS_TYPE": 0, "CLASSIFICATION_TYPE": "U", "NORAD_CAT_ID": 43437, "ELEMENT_SET_NO": 999, "REV_AT_EPOCH": 39656, "BSTAR": 0.00014454336, "MEAN_MOTION_DOT": 3.06e-06, "MEAN_MOTION_DDOT": 0}, "tle": {"line1": "1 43437U 18039A   25339.91172835  .00000306  00000+0  14454-3 0  9999", "line2": "2 43437  98.6274  45.1945 0001492 109.4025 250.7317 14.26738795396560"}}, "geometry": {"type": "Point", "coordinates": [48.74660731967987, -19.442431274221153]}}, {"type": "Feature", "properties": {"norad_id": 43461, "name": "GAOFEN-5 01", "group": "resource", "lat": -75.2395473982373, "lon": -22.48300568031038, "alt_km": 699.0063827003796, "timestamp": "2025-12-06T09:34:16.575583+00:00", "meta": {"OBJECT_NAME": "GAOFEN-5 01", "OBJECT_ID": "2018-043A", "EPOCH": "2025-12-05T20:46:20.412192", "MEAN_MOTION": 14.60398049, "ECCENTRICITY": 0.0001405, "INCLINATION": 98.4315, "RA_OF_ASC_NODE": 302.7132, "ARG_OF_PERICENTER": 2.9741, "MEAN_ANOMALY": 357.1466, "EPHEMERIS_TYPE": 0, "CLASSIFICATION_TYPE": "U", "NORAD_CAT_ID": 43461, "ELEMENT_SET_NO": 999, "REV_AT_EPOCH": 40347, "BSTAR": 0.00021309407, "MEAN_MOTION_DOT": 9.83e-06, "MEAN_MOTION_DDOT": 0}, "tle": {"line1": "1 43461U 18043A   25339.86551403  .00000983  00000+0  21309-3 0  9995", "line2": "2 43461  98.4315 302.7132 0001405   2.9741 357.1466 14.60398049403475"}}, "geometry": {"type": "Point", "coordinates": [-22.48300568031038, -75.2395473982373]}}, {"type": "Feature", "properties": {"norad_id": 43484, "name": "GAOFEN-6", "group": "resource", "lat": -82.18711534263846, "lon": 136.63131298653045, "alt_km": 656.8895713149968, "timestamp": "2025-12-06T09:34:16.575593+00:00", "meta": {"OBJECT_NAME": "GAOFEN-6", "OBJECT_ID": "2018-048A", "EPOCH": "2025-12-05T20:58:07.889088", "MEAN_MOTION": 14.76545942, "ECCENTRICITY": 0.00133417, "INCLINATION": 97.8041, "RA_OF_ASC_NODE": 44.3708, "ARG_OF_PERICENTER": 83.8978, "MEAN_ANOMALY": 276.3752, "EPHEMERIS_TYPE": 0, "CLASSIFICATION_TYPE": "U", "NORAD_CAT_ID": 43484, "ELEMENT_SET_NO": 999, "REV_AT_EPOCH": 40486, "BSTAR": 0.0001101151, "MEAN_MOTION_DOT": 7.19e-06, "MEAN_MOTION_DDOT": 0}, "tle": {"line1": "1 43484U 18048A   25339.87370242  .00000719  00000+0  11012-3 0  9993", "line2": "2 43484  97.8041  44.3708 0013341  83.8978 276.3752 14.76545942404866"}}, "geometry": {"type": "Point", "coordinates": [136.63131298653045, -82.18711534263846]}}, {"type": "Feature", "properties": {"norad_id": 43585, "name": "GAOFEN-11 01", "group": "resource", "lat": -43.17381449078704, "lon": -143.38249730936553, "alt_km": 428.06519064271833, "timestamp": "2025-12-06T09:34:16.575604+00:00", "meta": {"OBJECT_NAME": "GAOFEN-11 01", "OBJECT_ID": "2018-063A", "EPOCH": "2025-12-05T23:18:22.287456", "MEAN_MOTION": 15.48938311, "ECCENTRICITY": 0.0004752, "INCLINATION": 97.1569, "RA_OF_ASC_NODE": 42.9638, "ARG_OF_PERICENTER": 343.6984, "MEAN_ANOMALY": 16.4114, "EPHEMERIS_TYPE": 0, "CLASSIFICATION_TYPE": "U", "NORAD_CAT_ID": 43585, "ELEMENT_SET_NO": 999, "REV_AT_EPOCH": 41037, "BSTAR": 0.00039998496, "MEAN_MOTION_DOT": 0.00021543, "MEAN_MOTION_DDOT": 0}, "tle": {"line1": "1 43585U 18063A   25339.97109129  .00021543  00000+0  39998-3 0  9998", "line2": "2 43585  97.1569  42.9638 0004752 343.6984  16.4114 15.48938311410376"}}, "geometry": {"type": "Point", "coordinates": [-143.38249730936553, -43.17381449078704]}}, {"type": "Feature", "properties": {"norad_id": 43613, "name": "ICESAT-2", "group": "resource", "lat": 75.78854220476894, "lon": -128.92771925426524, "alt_km": 474.1858398528939, "timestamp": "2025-12-06T09:34:16.575614+00:00", "meta": {"OBJECT_NAME": "ICESAT-2", "OBJECT_ID": "2018-070A", "EPOCH": "2025-12-05T22:14:19.755456", "MEAN_MOTION": 15.28142401, "ECCENTRICITY": 0.00016216, "INCLINATION": 92.0054, "RA_OF_ASC_NODE": 238.8978, "ARG_OF_PERICENTER": 164.5281, "MEAN_ANOMALY": 195.6018, "EPHEMERIS_TYPE": 0, "CLASSIFICATION_TYPE": "U", "NORAD_CAT_ID": 43613, "ELEMENT_SET_NO": 999, "REV_AT_EPOCH": 40294, "BSTAR": 0.00071193332, "MEAN_MOTION_DOT": 0.00019545, "MEAN_MOTION_DDOT": 0}, "tle": {"line1": "1 43613U 18070A   25339.92661754  .00019545  00000+0  71193-3 0  9992", "line2": "2 43613  92.0054 238.8978 0001621 164.5281 195.6018 15.28142401402948"}}, "geometry": {"type": "Point", "coordinates": [-128.92771925426524, 75.78854220476894]}}, {"type": "Feature", "properties": {"norad_id": 43719, "name": "HYSIS", "group": "resource", "lat": -75.36900528480088, "lon": -169.23760233759722, "alt_km": 642.0973724281193, "timestamp": "2025-12-06T09:34:16.575624+00:00", "meta": {"OBJECT_NAME": "HYSIS", "OBJECT_ID": "2018-096A", "EPOCH": "2025-12-05T22:39:52.436160", "MEAN_MOTION": 14.78615667, "ECCENTRICITY": 0.0001603, "INCLINATION": 98.0106, "RA_OF_ASC_NODE": 42.9554, "ARG_OF_PERICENTER": 63.9211, "MEAN_ANOMALY": 296.2165, "EPHEMERIS_TYPE": 0, "CLASSIFICATION_TYPE": "U", "NORAD_CAT_ID": 43719, "ELEMENT_SET_NO": 999, "REV_AT_EPOCH": 37886, "BSTAR": 0.00036108996, "MEAN_MOTION_DOT": 2.592e-05, "MEAN_MOTION_DDOT": 0}, "tle": {"line1": "1 43719U 18096A   25339.94435690  .00002592  00000+0  36109-3 0  9999", "line2": "2 43719  98.0106  42.9554 0001603  63.9211 296.2165 14.78615667378865"}}, "geometry": {"type": "Point", "coordinates": [-169.23760233759722, -75.36900528480088]}}, {"type": "Feature", "properties": {"norad_id": 43783, "name": "KAZSTSAT", "group": "resource", "lat": 21.918097346963034, "lon": 12.836167987715795, "alt_km": 564.9060195411148, "timestamp": "2025-12-06T09:34:16.575634+00:00", "meta": {"OBJECT_NAME": "KAZSTSAT", "OBJECT_ID": "2018-099AB", "EPOCH": "2025-12-05T22:15:39.439584", "MEAN_MOTION": 14.99318025, "ECCENTRICITY": 0.0006317, "INCLINATION": 97.4553, "RA_OF_ASC_NODE": 15.4054, "ARG_OF_PERICENTER": 356.8778, "MEAN_ANOMALY": 3.2405, "EPHEMERIS_TYPE": 0, "CLASSIFICATION_TYPE": "U", "NORAD_CAT_ID": 43783, "ELEMENT_SET_NO": 999, "REV_AT_EPOCH": 38234, "BSTAR": 0.00027585766, "MEAN_MOTION_DOT": 3.315e-05, "MEAN_MOTION_DDOT": 0}, "tle": {"line1": "1 43783U 18099AB  25339.92753981  .00003315  00000+0  27586-3 0  9990", "line2": "2 43783  97.4553  15.4054 0006317 356.8778   3.2405 14.99318025382346"}}, "geometry": {"type": "Point", "coordinates": [12.836167987715795, 21.918097346963034]}}, {"type": "Feature", "properties": {"norad_id": 43831, "name": "SAUDISAT 5A", "group": "resource", "lat": -16.558005391417048, "lon": -141.48227309244405, "alt_km": 495.7002301314569, "timestamp": "2025-12-06T09:34:16.575644+00:00", "meta": {"OBJECT_NAME": "SAUDISAT 5A", "OBJECT_ID": "2018-102A", "EPOCH": "2025-12-05T23:16:04.771488", "MEAN_MOTION": 15.25530196, "ECCENTRICITY": 0.00118498, "INCLINATION": 97.3364, "RA_OF_ASC_NODE": 40.292, "ARG_OF_PERICENTER": 96.9807, "MEAN_ANOMALY": 263.278, "EPHEMERIS_TYPE": 0, "CLASSIFICATION_TYPE": "U", "NORAD_CAT_ID": 43831, "ELEMENT_SET_NO": 999, "REV_AT_EPOCH": 38619, "BSTAR": 0.00038065769, "MEAN_MOTION_DOT": 9.602e-05, "MEAN_MOTION_DDOT": 0}, "tle": {"line1": "1 43831U 18102A   25339.96949967  .00009602  00000+0  38066-3 0  9994", "line2": "2 43831  97.3364  40.2920 0011849  96.9807 263.2780 15.25530196386194"}}, "geometry": {"type": "Point", "coordinates": [-141.48227309244405, -16.558005391417048]}}, {"type": "Feature", "properties": {"norad_id": 43833, "name": "SAUDISAT 5B", "group": "resource", "lat": -59.93292835491321, "lon": -149.43564151146944, "alt_km": 502.12968600034856, "timestamp": "2025-12-06T09:34:16.575653+00:00", "meta": {"OBJECT_NAME": "SAUDISAT 5B", "OBJECT_ID": "2018-102C", "EPOCH": "2025-12-05T23:04:38.374464", "MEAN_MOTION": 15.25885332, "ECCENTRICITY": 0.001252, "INCLINATION": 97.3457, "RA_OF_ASC_NODE": 43.0106, "ARG_OF_PERICENTER": 99.415, "MEAN_ANOMALY": 260.8504, "EPHEMERIS_TYPE": 0, "CLASSIFICATION_TYPE": "U", "NORAD_CAT_ID": 43833, "ELEMENT_SET_NO": 999, "REV_AT_EPOCH": 38630, "BSTAR": 0.00036970083, "MEAN_MOTION_DOT": 9.425e-05, "MEAN_MOTION_DDOT": 0}, "tle": {"line1": "1 43833U 18102C   25339.96155526  .00009425  00000+0  36970-3 0  9991", "line2": "2 43833  97.3457  43.0106 0012520  99.4150 260.8504 15.25885332386307"}}, "geometry": {"type": "Point", "coordinates": [-149.43564151146944, -59.93292835491321]}}]}